IRIDIUM 126             
1 42809U 17039G   23337.55294924  .00000412  00000+0  14011-3 0  9997
2 42809  86.3988  20.8923 0002100 103.4286 256.7144 14.34216587337135
IRIDIUM 124             
1 42810U 17039H   23338.48563964  .00000782  00000+0  22656-3 0  9999
2 42810  86.4471 317.2609 0002454  85.1024 275.0458 14.43291383341591
IRIDIUM 128             
1 42811U 17039J   23338.31113766  .00000081  00000+0  21839-4 0  9998
2 42811  86.3986  52.0920 0002092  97.7063 262.4371 14.34218408337273
IRIDIUM 121             
1 42812U 17039K   23338.13012759  .00000389  00000+0  13180-3 0  9999
2 42812  86.3988  20.6726 0002058  95.5965 264.5465 14.34215996337210
IRIDIUM 133             
1 42955U 17061A   23338.13354817  .00000514  00000+0  17662-3 0  9995
2 42955  86.3986  52.2613 0002073 102.5916 257.5511 14.34216803322041
IRIDIUM 100             
1 42956U 17061B   23337.70859434  .00000610  00000+0  21073-3 0  9991
2 42956  86.3985  52.3794 0002198  98.6406 261.5039 14.34215117322002
IRIDIUM 122             
1 42957U 17061C   23337.74664900  .00000602  00000+0  20794-3 0  9998
2 42957  86.3984  52.3609 0002243  97.1104 263.0347 14.34218327321999
IRIDIUM 129             
1 42958U 17061D   23338.26040147  .00000440  00000+0  14998-3 0  9997
2 42958  86.3983  52.2043 0002354  89.8583 270.2882 14.34217275322088
